norad_id,name,regime,epoch,line1,line2,inclination,eccentricity,mean_motion,raan,arg_pericenter,mean_anomaly
26566,COSMOS 2374 (GLONASS),NSO,21358.87157633,1 26566U 00063C   21358.87157633 -.00000031  00000-0  00000-0 0    12\,2 26566  65.7288   8.8607 0071647 216.1712 357.3321  2.13099498164906,65.7288,0.0071647,2.13099498,8.8607,216.1712,357.3321
26566,COSMOS 2374 (GLONASS),NSO,21358.99882675,1 26566U 00063C   21358.99882675 -.00000031  00000-0  00000-0 0    16\,2 26566  65.7288   8.8564 0071652 216.1731  94.9507  2.13099502164901,65.7288,0.0071652,2.13099502,8.8564,216.1731,94.9507
26566,COSMOS 2374 (GLONASS),NSO,21361.54279531,1 26566U 00063C   21361.54279531 -.00000024  00000-0  00000+0 0  2396\,2 26566  65.7290   8.7707 0071625 216.1791 246.5534  2.13099427165023,65.729,0.0071625,2.13099427,8.7707,216.1791,246.5534
26566,COSMOS 2374 (GLONASS),NSO,21362.61242584,1 26566U 00063C   21362.61242584 -.00000024  00000-0  00000-0 0    11\,2 26566  65.7291   8.7347 0071618 216.1816 347.1193  2.13099407164985,65.7291,0.0071618,2.13099407,8.7347,216.1816,347.1193
26566,COSMOS 2374 (GLONASS),NSO,22003.61822788,1 26566U 00063C   22003.61822788 -.00000054  00000-0  00000+0 0  2401\,2 26566  65.7295   8.5323 0071577 216.2032 274.4558  2.13099379165173,65.7295,0.0071577,2.13099379,8.5323,216.2032,274.4558
26566,COSMOS 2374 (GLONASS),NSO,22004.55068262,1 26566U 00063C   22004.55068262 -.00000058  00000-0  00000-0 0    14\,2 26566  65.7296   8.5009 0071567 216.2066 269.7862  2.13099394165139,65.7296,0.0071567,2.13099394,8.5009,216.2066,269.7862
26566,COSMOS 2374 (GLONASS),NSO,22004.67483440,1 26566U 00063C   22004.67483440 -.00000059  00000-0  00000-0 0    17\,2 26566  65.7296   8.4967 0071571 216.2071   5.0291  2.13099407165134,65.7296,0.0071571,2.13099407,8.4967,216.2071,5.0291
26566,COSMOS 2374 (GLONASS),NSO,22005.55203380,1 26566U 00063C   22005.55203380 -.00000061  00000-0  00000-0 0    11\,2 26566  65.7297   8.4672 0071565 216.2068 317.9738  2.13099421165156,65.7297,0.0071565,2.13099421,8.4672,216.2068,317.9738
26566,COSMOS 2374 (GLONASS),NSO,22006.97977619,1 26566U 00063C   22006.97977619 -.00000061  00000-0  00000+0 0  2416\,2 26566  65.7298   8.4191 0071553 216.2096 333.2655  2.13099460165243,65.7298,0.0071553,2.1309946,8.4191,216.2096,333.2655
26566,COSMOS 2374 (GLONASS),NSO,22007.43738431,1 26566U 00063C   22007.43738431 -.00000060  00000-0  00000-0 0    19\,2 26566  65.7298   8.4036 0071550 216.2104 324.3193  2.13099473165194,65.7298,0.007155,2.13099473,8.4036,216.2104,324.3193
26566,COSMOS 2374 (GLONASS),NSO,22010.75382361,1 26566U 00063C   22010.75382361 -.00000054  00000-0  00000-0 0    18\,2 26566  65.7301   8.2921 0071521 216.2225 348.5178  2.13099559165266,65.7301,0.0071521,2.13099559,8.2921,216.2225,348.5178
26566,COSMOS 2374 (GLONASS),NSO,22011.04943324,1 26566U 00063C   22011.04943324 -.00000054  00000-0  00000-0 0    13\,2 26566  65.7301   8.2821 0071520 216.2240 215.2937  2.13099566165273,65.7301,0.007152,2.13099566,8.2821,216.224,215.2937
26566,COSMOS 2374 (GLONASS),NSO,22011.66509811,1 26566U 00063C   22011.66509811 -.00000053  00000-0  00000-0 0    19\,2 26566  65.7301   8.2614 0071513 216.2261 327.5995  2.13099573165288,65.7301,0.0071513,2.13099573,8.2614,216.2261,327.5995
26566,COSMOS 2374 (GLONASS),NSO,22014.23828159,1 26566U 00063C   22014.23828159 -.00000053  00000-0  00000-0 0    14\,2 26566  65.7303   8.1749 0071495 216.2266 141.6213  2.13099638165338,65.7303,0.0071495,2.13099638,8.1749,216.2266,141.6213
26566,COSMOS 2374 (GLONASS),NSO,22016.12884986,1 26566U 00063C   22016.12884986 -.00000051  00000-0  00000-0 0    12\,2 26566  65.7304   8.1113 0071497 216.2261 151.9735  2.13099612165381,65.7304,0.0071497,2.13099612,8.1113,216.2261,151.9735
26566,COSMOS 2374 (GLONASS),NSO,22017.08931848,1 26566U 00063C   22017.08931848 -.00000049  00000-0  00000-0 0    15\,2 26566  65.7305   8.0791 0071486 216.2250 168.7996  2.13099608165402,65.7305,0.0071486,2.13099608,8.0791,216.225,168.7996
26566,COSMOS 2374 (GLONASS),NSO,22017.76571036,1 26566U 00063C   22017.76571036 -.00000048  00000-0  00000-0 0    18\,2 26566  65.7305   8.0563 0071484 216.2243 327.6952  2.13099591165419,65.7305,0.0071484,2.13099591,8.0563,216.2243,327.6952
26566,COSMOS 2374 (GLONASS),NSO,22018.46860564,1 26566U 00063C   22018.46860564 -.00000046  00000-0  00000-0 0    11\,2 26566  65.7305   8.0327 0071495 216.2233 146.9234  2.13099581165434,65.7305,0.0071495,2.13099581,8.0327,216.2233,146.9234
26566,COSMOS 2374 (GLONASS),NSO,22019.40586559,1 26566U 00063C   22019.40586559 -.00000042  00000-0  00000-0 0    11\,2 26566  65.7305   8.0012 0071517 216.2182 145.9484  2.13099544165450,65.7305,0.0071517,2.13099544,8.0012,216.2182,145.9484
26566,COSMOS 2374 (GLONASS),NSO,22019.87447316,1 26566U 00063C   22019.87447316 -.00000041  00000-0  00000-0 0    18\,2 26566  65.7306   7.9855 0071512 216.2179 145.4415  2.13099528165467,65.7306,0.0071512,2.13099528,7.9855,216.2179,145.4415
26566,COSMOS 2374 (GLONASS),NSO,22020.34309691,1 26566U 00063C   22020.34309691 -.00000039  00000-0  00000-0 0    12\,2 26566  65.7306   7.9697 0071517 216.2151 144.9497  2.13099518165470,65.7306,0.0071517,2.13099518,7.9697,216.2151,144.9497
26566,COSMOS 2374 (GLONASS),NSO,22020.81172841,1 26566U 00063C   22020.81172841 -.00000037  00000-0  00000-0 0    17\,2 26566  65.7306   7.9540 0071516 216.2131 144.4630  2.13099507165487,65.7306,0.0071516,2.13099507,7.954,216.2131,144.463
26566,COSMOS 2374 (GLONASS),NSO,22021.51281272,1 26566U 00063C   22021.51281272 -.00000035  00000-0  00000-0 0    12\,2 26566  65.7306   7.9304 0071500 216.2112 322.3026  2.13099490165495,65.7306,0.00715,2.1309949,7.9304,216.2112,322.3026
26566,COSMOS 2374 (GLONASS),NSO,22021.74897606,1 26566U 00063C   22021.74897606 -.00000034  00000-0  00000-0 0    10\,2 26566  65.7306   7.9224 0071497 216.2139 143.4729  2.13099487165500,65.7306,0.0071497,2.13099487,7.9224,216.2139,143.4729
26566,COSMOS 2374 (GLONASS),NSO,22022.45194403,1 26566U 00063C   22022.45194403 -.00000032  00000-0  00000-0 0    12\,2 26566  65.7307   7.8988 0071497 216.2071 322.7624  2.13099463165513,65.7307,0.0071497,2.13099463,7.8988,216.2071,322.7624
26566,COSMOS 2374 (GLONASS),NSO,22023.38911321,1 26566U 00063C   22023.38911321 -.00000030  00000-0  00000-0 0    19\,2 26566  65.7307   7.8673 0071491 216.2017 321.7182  2.13099435165537,65.7307,0.0071491,2.13099435,7.8673,216.2017,321.7182
26566,COSMOS 2374 (GLONASS),NSO,22024.56074657,1 26566U 00063C   22024.56074657 -.00000029  00000-0  00000-0 0    10\,2 26566  65.7308   7.8279 0071476 216.2035 140.5363  2.13099409165554,65.7308,0.0071476,2.13099409,7.8279,216.2035,140.5363
26566,COSMOS 2374 (GLONASS),NSO,22026.07680671,1 26566U 00063C   22026.07680671 -.00000032  00000-0  00000-0 0    11\,2 26566  65.7308   7.7769 0071457 216.2011 223.5861  2.13099383165590,65.7308,0.0071457,2.13099383,7.7769,216.2011,223.5861
26566,COSMOS 2374 (GLONASS),NSO,22028.54856635,1 26566U 00063C   22028.54856635 -.00000046  00000-0  00000-0 0    15\,2 26566  65.7309   7.6937 0071442 216.1956 319.8052  2.13099372165643,65.7309,0.0071442,2.13099372,7.6937,216.1956,319.8052
26566,COSMOS 2374 (GLONASS),NSO,22035.13590985,1 26566U 00063C   22035.13590985 -.00000070  00000-0  00000+0 0  2491\,2 26566  65.7312   7.4720 0071339 216.1661 333.3221  2.13099446165846,65.7312,0.0071339,2.13099446,7.472,216.1661,333.3221
26566,COSMOS 2374 (GLONASS),NSO,22035.58332297,1 26566U 00063C   22035.58332297 -.00000070  00000-0  00000-0 0    17\,2 26566  65.7311   7.4570 0071330 216.1635 316.5583  2.13099464165798,65.7311,0.007133,2.13099464,7.457,216.1635,316.5583
26566,COSMOS 2374 (GLONASS),NSO,22036.41790406,1 26566U 00063C   22036.41790406 -.00000069  00000-0  00000-0 0    18\,2 26566  65.7312   7.4289 0071324 216.1647 236.8072  2.13099493165814,65.7312,0.0071324,2.13099493,7.4289,216.1647,236.8072
26566,COSMOS 2374 (GLONASS),NSO,22040.27878125,1 26566U 00063C   22040.27878125 -.00000067  00000-0  00000-0 0    10\,2 26566  65.7312   7.2991 0071287 216.1518 318.6972  2.13099588165898,65.7312,0.0071287,2.13099588,7.2991,216.1518,318.6972
26566,COSMOS 2374 (GLONASS),NSO,22042.06280889,1 26566U 00063C   22042.06280889 -.00000067  00000-0  00000-0 0    13\,2 26566  65.7318   7.2392 0071433 216.1330 247.3344  2.13099529165935,65.7318,0.0071433,2.13099529,7.2392,216.133,247.3344
26566,COSMOS 2374 (GLONASS),NSO,22049.67530060,1 26566U 00063C   22049.67530060 -.00000047  00000-0  00000-0 0    14\,2 26566  65.7312   6.9835 0071253 216.0972 327.3043  2.13099469166094,65.7312,0.0071253,2.13099469,6.9835,216.0972,327.3043
26566,COSMOS 2374 (GLONASS),NSO,22050.65117243,1 26566U 00063C   22050.65117243 -.00000045  00000-0  00000-0 0    16\,2 26566  65.7312   6.9507 0071244 216.0919 355.9508  2.13099437166112,65.7312,0.0071244,2.13099437,6.9507,216.0919,355.9508
26566,COSMOS 2374 (GLONASS),NSO,22051.61133285,1 26566U 00063C   22051.61133285 -.00000044  00000-0  00000-0 0    16\,2 26566  65.7311   6.9185 0071236 216.0832  12.5477  2.13099412166134,65.7311,0.0071236,2.13099412,6.9185,216.0832,12.5477
26566,COSMOS 2374 (GLONASS),NSO,22052.49026625,1 26566U 00063C   22052.49026625 -.00000045  00000-0  00000+0 0  2520\,2 26566  65.7311   6.8889 0071229 216.0755 326.8302  2.13099395166217,65.7311,0.0071229,2.13099395,6.8889,216.0755,326.8302
26566,COSMOS 2374 (GLONASS),NSO,22057.64611267,1 26566U 00063C   22057.64611267 -.00000074  00000-0  00000-0 0    19\,2 26566  65.7309   6.7155 0071186 216.0396 322.1797  2.13099368166264,65.7309,0.0071186,2.13099368,6.7155,216.0396,322.1797
26566,COSMOS 2374 (GLONASS),NSO,22058.70053271,1 26566U 00063C   22058.70053271 -.00000080  00000-0  00000-0 0    19\,2 26566  65.7309   6.6801 0071154 216.0192  51.0993  2.13099371166282,65.7309,0.0071154,2.13099371,6.6801,216.0192,51.0993
